NORAD_CAT_ID,OBJECT_NAME,OBJECT_TYPE,EPOCH,MEAN_MOTION,ECCENTRICITY,INCLINATION,RA_OF_ASC_NODE,ARG_OF_PERICENTER,MEAN_ANOMALY,BSTAR,MEAN_MOTION_DOT,MEAN_MOTION_DDOT,TLE_LINE0,TLE_LINE1,TLE_LINE2,SEMIMAJOR_AXIS,PERIOD,APOGEE,PERIGEE,DECAYED
54003.0,STARLINK-5114,PAYLOAD,2022-10-30 14:00:01,15.7316324,0.0003432,53.2184,329.7471,5.9733,262.9389,-6.3373e-05,-9.496e-05,0.0,0 STARLINK-5114,1 54003U 22125AR  22303.58334491 -.00009496  00000-0 -63373-4 0  9997,2 54003  53.2184 329.7471 0003432   5.9733 262.9389 15.73163240  1304,6728.0,91.535,352.1740000000001,347.556,0.0
54003.0,STARLINK-5114,PAYLOAD,2022-10-30 22:00:01,15.73109457,0.0003186,53.2183,328.0957,9.5418,348.3381,0.00056854,0.00079633,0.0,0 STARLINK-5114,1 54003U 22125AR  22303.91668981  .00079633  00000-0  56854-3 0  9991,2 54003  53.2183 328.0957 0003186   9.5418 348.3381 15.73109457  1301,6728.153,91.538,352.162,347.875,0.0
54003.0,STARLINK-5114,PAYLOAD,2022-10-31 14:00:01,15.73219289,0.0003458999999999,53.2182,324.7992,10.4503,165.1229,0.00025514,0.00035374,0.0,0 STARLINK-5114,1 54003U 22125AR  22304.58334491  .00035374  00000-0  25514-3 0  9994,2 54003  53.2182 324.7992 0003459  10.4503 165.1229 15.73219289  1302,6727.84,91.532,352.032,347.37800000000016,0.0
54003.0,STARLINK-5114,PAYLOAD,2022-10-31 20:00:01,15.73260662,0.0003275,53.2188,323.5603,9.1631,143.2073,-0.00054746,-0.00076981,0.0,0 STARLINK-5114,1 54003U 22125AR  22304.83335648 -.00076981  00000-0 -54746-3 0  9997,2 54003  53.2188 323.5603 0003275   9.1631 143.2073 15.73260662  4440,6727.722,91.53,351.791,347.384,0.0
54003.0,STARLINK-5114,PAYLOAD,2022-10-31 22:00:01,15.73224314,0.0003236,53.2186,323.1475,9.2534,255.3732,-0.00018239,-0.00026175,0.0,0 STARLINK-5114,1 54003U 22125AR  22304.91668981 -.00026175  00000-0 -18239-3 0  9992,2 54003  53.2186 323.1475 0003236   9.2534 255.3732 15.73224314  1304,6727.826,91.532,351.86800000000005,347.514,0.0
54003.0,STARLINK-5114,PAYLOAD,2022-11-01 04:00:00,15.73228773,0.0003304,53.2189,321.9112,11.0935,230.1913,-0.0004102,-0.00057887,0.0,0 STARLINK-5114,1 54003U 22125AR  22305.16667824 -.00057887  00000-0 -41020-3 0  9993,2 54003  53.2189 321.9112 0003304  11.0935 230.1913 15.73228773  4503,6727.813,91.532,351.901,347.455,0.0
54003.0,STARLINK-5114,PAYLOAD,2022-11-01 12:00:00,15.73158353,0.0003628,53.2186,320.2634,12.1129,318.1125,0.00085396,0.00120776,0.0,0 STARLINK-5114,1 54003U 22125AR  22305.50001157  .00120776  00000-0  85396-3 0  9992,2 54003  53.2186 320.2634 0003628  12.1129 318.1125 15.73158353  4550,6728.014,91.536,352.32,347.43800000000016,0.0
54003.0,STARLINK-5114,PAYLOAD,2022-11-01 14:00:01,15.73196204,0.0003603,53.2183,319.8506,12.1764,70.268,0.00051113,0.00071734,0.0,0 STARLINK-5114,1 54003U 22125AR  22305.58334491  .00071734  00000-0  51113-3 0  9999,2 54003  53.2183 319.8506 0003603  12.1764  70.2680 15.73196204  1306,6727.906,91.533,352.195,347.347,0.0
54003.0,STARLINK-5114,PAYLOAD,2022-11-01 20:00:01,15.73247601,0.000334,53.2185,318.612,11.8995,47.2585,-0.00027556,-0.00039208,0.0,0 STARLINK-5114,1 54003U 22125AR  22305.83334491 -.00039208  00000-0 -27556-3 0  9993,2 54003  53.2185 318.6120 0003340  11.8995  47.2585 15.73247601  4609,6727.759,91.53,351.872,347.37699999999984,0.0
54003.0,STARLINK-5114,PAYLOAD,2022-11-01 22:00:00,15.73235535,0.0003308999999999,53.2182,318.1993,12.419,158.9875,-0.00022043,-0.000315,0.0,0 STARLINK-5114,1 54003U 22125AR  22305.91667824 -.00031500  00000-0 -22043-3 0  9994,2 54003  53.2182 318.1993 0003309  12.4190 158.9875 15.73235535  1307,6727.794,91.531,351.885,347.43300000000005,0.0
54003.0,STARLINK-5114,PAYLOAD,2022-11-02 14:00:01,15.73170011,0.0003626,53.2173,314.8978,11.0564,338.2248,0.00041935,0.00058583,0.0,0 STARLINK-5114,1 54003U 22125AR  22306.58334491  .00058583  00000-0  41935-3 0  9998,2 54003  53.2173 314.8978 0003626  11.0564 338.2248 15.73170011  1309,6727.981,91.535,352.285,347.406,0.0
54003.0,STARLINK-5114,PAYLOAD,2022-11-02 22:00:00,15.73186586,0.0003268,53.2182,313.2511,10.8859,67.3214,0.00024585,0.00034009,0.0,0 STARLINK-5114,1 54003U 22125AR  22306.91667824  .00034009  00000-0  24585-3 0  9993,2 54003  53.2182 313.2511 0003268  10.8859  67.3214 15.73186586  4772,6727.933000000001,91.534,351.997,347.6,0.0
54003.0,STARLINK-5114,PAYLOAD,2022-11-03 14:00:01,15.73245851,0.0003509,53.2178,309.9538,6.7084,249.4086,8.293100000000001e-05,0.00011056,0.0,0 STARLINK-5114,1 54003U 22125AR  22307.58334491  .00011056  00000-0  82931-4 0  9995,2 54003  53.2178 309.9538 0003509   6.7084 249.4086 15.73245851  1307,6727.764,91.531,351.99,347.269,0.0
54003.0,STARLINK-5114,PAYLOAD,2022-11-03 22:00:00,15.73243292,0.0003276,53.2177,308.3025,7.5081,337.6175,0.00027102,0.00037663,0.0,0 STARLINK-5114,1 54003U 22125AR  22307.91667824  .00037663  00000-0  27102-3 0  9991,2 54003  53.2177 308.3025 0003276   7.5081 337.6175 15.73243292  1303,6727.772,91.531,351.841,347.43300000000005,0.0
54003.0,STARLINK-5114,PAYLOAD,2022-11-04 06:00:00,15.73283779,0.0003439,53.2176,306.6549,7.1968,66.9256,-0.00072518,-0.0010158,0.0,0 STARLINK-5114,1 54003U 22125AR  22308.25001157 -.00101580  00000-0 -72518-3 0  9993,2 54003  53.2176 306.6549 0003439   7.1968  66.9256 15.73283779  4988,6727.656,91.528,351.835,347.208,0.0
54003.0,STARLINK-5114,PAYLOAD,2022-11-04 14:00:01,15.73205531,0.0003484,53.2172,305.0051,3.7674,159.3428,-2.0075e-05,-3.442e-05,0.0,0 STARLINK-5114,1 54003U 22125AR  22308.58334491 -.00003442  00000-0 -20075-4 0  9999,2 54003  53.2172 305.0051 0003484   3.7674 159.3428 15.73205531  1302,6727.879,91.533,352.088,347.4,0.0
54003.0,STARLINK-5114,PAYLOAD,2022-11-04 22:00:01,15.73182661,0.000331,53.2175,303.3536,8.5876,243.522,-0.0003112,-0.00044051,0.0,0 STARLINK-5114,1 54003U 22125AR  22308.91668981 -.00044051  00000-0 -31120-3 0  9993,2 54003  53.2175 303.3536 0003310   8.5876 243.5220 15.73182661  5093,6727.945,91.534,352.037,347.583,0.0
54003.0,STARLINK-5114,PAYLOAD,2022-11-05 12:00:00,15.73070575,0.0003595,53.2174,300.4695,7.6336,309.9357,0.00021644,0.00029702,0.0,0 STARLINK-5114,1 54003U 22125AR  22309.50001157  .00029702  00000-0  21644-3 0  9999,2 54003  53.2174 300.4695 0003595   7.6336 309.9357 15.73070575  5180,6728.264,91.541,352.548,347.71,0.0
54003.0,STARLINK-5114,PAYLOAD,2022-11-05 14:00:01,15.73070589,0.0003532,53.2173,300.0565,7.801,62.0307,0.00026547,0.00036601,0.0,0 STARLINK-5114,1 54003U 22125AR  22309.58335648  .00036601  00000-0  26547-3 0  9995,2 54003  53.2173 300.0565 0003532   7.8010  62.0307 15.73070589  1300,6728.264,91.541,352.506,347.75300000000016,0.0
54003.0,STARLINK-5114,PAYLOAD,2022-11-05 22:00:01,15.73060673,0.0003297,53.2173,298.4057,8.7896,149.8405,0.0016601,0.00237681,0.0,0 STARLINK-5114,1 54003U 22125AR  22309.91668981  .00237681  00000-0  16601-2 0  9991,2 54003  53.2173 298.4057 0003297   8.7896 149.8405 15.73060673  5249,6728.292,91.541,352.376,347.939,0.0
54003.0,STARLINK-5114,PAYLOAD,2022-11-06 14:00:01,15.73485232,0.0003485,53.217,295.108,8.0709,328.4071,-0.0021516,-0.00295972,0.0,0 STARLINK-5114,1 54003U 22125AR  22310.58334491 -.00295972  00000-0 -21516-2 0  9992,2 54003  53.2170 295.1080 0003485   8.0709 328.4071 15.73485232  1300,6727.081999999999,91.517,351.291,346.603,0.0
54003.0,STARLINK-5114,PAYLOAD,2022-11-07 06:00:00,15.73137677,0.0003562,53.2174,291.8087,14.5863,139.9935,-0.00035797,-0.00050447,0.0,0 STARLINK-5114,1 54003U 22125AR  22311.25001157 -.00050447  00000-0 -35797-3 0  9990,2 54003  53.2174 291.8087 0003562  14.5863 139.9935 15.73137677  5454,6728.073,91.537,352.334,347.541,0.0
54003.0,STARLINK-5114,PAYLOAD,2022-11-07 14:00:01,15.73127374,0.0003515,53.2172,290.1588,14.1865,229.2182,0.00026939,0.00037245,0.0,0 STARLINK-5114,1 54003U 22125AR  22311.58334491  .00037245  00000-0  26939-3 0  9993,2 54003  53.2172 290.1588 0003515  14.1865 229.2182 15.73127374  5513,6728.102,91.537,352.332,347.602,0.0
54003.0,STARLINK-5114,PAYLOAD,2022-11-07 22:00:00,15.7317086,0.0003201,53.2176,288.5021,12.9748,319.2849,0.00047846,0.00066993,0.0,0 STARLINK-5114,1 54003U 22125AR  22311.91667824  .00066993  00000-0  47846-3 0  9991,2 54003  53.2176 288.5021 0003201  12.9748 319.2849 15.73170860  1309,6727.978,91.535,351.997,347.69,0.0
54003.0,STARLINK-5114,PAYLOAD,2022-11-08 06:00:00,15.73140113,0.0002648,53.2176,286.8486,345.1858,76.0992,-0.0047417,-0.00618038,0.0,0 STARLINK-5114,1 54003U 22125AR  22312.25001157 -.00618038  00000-0 -47417-2 0  9998,2 54003  53.2176 286.8486 0002648 345.1858  76.0992 15.73140113  5615,6728.066,91.537,351.713,348.149,0.0
54003.0,STARLINK-5114,PAYLOAD,2022-11-08 12:00:00,15.727028699999998,0.0003131,53.2167,285.6086,313.9841,83.8964,-0.0050424,-0.00643183,0.0,0 STARLINK-5114,1 54003U 22125AR  22312.50001157 -.00643183  00000-0 -50424-2 0  9997,2 54003  53.2167 285.6086 0003131 313.9841  83.8964 15.72702870  5653,6729.313,91.562,353.285,349.071,0.0
54003.0,STARLINK-5114,PAYLOAD,2022-11-08 14:00:01,15.72800978,0.0003395,53.2171,285.1929,301.4364,208.4446,-0.0084668,-0.01052342,0.0,0 STARLINK-5114,1 54003U 22125AR  22312.58334491 -.01052342  00000-0 -84668-2 0  9994,2 54003  53.2171 285.1929 0003395 301.4364 208.4446 15.72800978  1309,6729.033,91.556,353.18300000000005,348.61400000000015,0.0
54003.0,STARLINK-5114,PAYLOAD,2022-11-08 22:00:00,15.71976401,0.0006096,53.2172,283.5458,274.083,323.8123,-0.0086713,-0.01043007,0.0,0 STARLINK-5114,1 54003U 22125AR  22312.91667824 -.01043007  00000-0 -86713-2 0  9991,2 54003  53.2172 283.5458 0006096 274.0830 323.8123 15.71976401  5721,6731.386,91.604,357.35400000000016,349.148,0.0
54003.0,STARLINK-5114,PAYLOAD,2022-11-09 04:00:00,15.71493782,0.0006724,53.2175,282.314,271.3227,301.8604,-0.010285,-0.01193455,0.0,0 STARLINK-5114,1 54003U 22125AR  22313.16667824 -.01193455  00000-0 -10285-1 0  9992,2 54003  53.2175 282.3140 0006724 271.3227 301.8604 15.71493782  5767,6732.764,91.633,359.156,350.102,0.0
